CCSDS_OMM_VERS = 2.0
CREATION_DATE  = 
ORIGINATOR     = 

OBJECT_NAME    = AQUA
OBJECT_ID      = 2002-022A
CENTER_NAME    = EARTH
REF_FRAME      = TEME
TIME_SYSTEM    = UTC
MEAN_ELEMENT_THEORY = SGP/SGP4

EPOCH          = 2026-03-12T07:03:15.187392
MEAN_MOTION    = 14.61984497
ECCENTRICITY   = .00005735
INCLINATION    = 98.4178
RA_OF_ASC_NODE = 38.7063
ARG_OF_PERICENTER = 90.7421
MEAN_ANOMALY   = 15.7037

EPHEMERIS_TYPE = 0
CLASSIFICATION_TYPE = U
NORAD_CAT_ID   = 27424
ELEMENT_SET_NO = 999
REV_AT_EPOCH   = 26911
BSTAR          = .27191246E-3
MEAN_MOTION_DOT = .1314E-4
MEAN_MOTION_DDOT = 0

CCSDS_OMM_VERS = 2.0
CREATION_DATE  = 
ORIGINATOR     = 

OBJECT_NAME    = CZ-4B R/B
OBJECT_ID      = 2002-024C
CENTER_NAME    = EARTH
REF_FRAME      = TEME
TIME_SYSTEM    = UTC
MEAN_ELEMENT_THEORY = SGP/SGP4

EPOCH          = 2026-03-12T02:56:29.750784
MEAN_MOTION    = 14.14548047
ECCENTRICITY   = .0050364
INCLINATION    = 98.8834
RA_OF_ASC_NODE = 124.5169
ARG_OF_PERICENTER = 17.3131
MEAN_ANOMALY   = 36.9194

EPHEMERIS_TYPE = 0
CLASSIFICATION_TYPE = U
NORAD_CAT_ID   = 27432
ELEMENT_SET_NO = 999
REV_AT_EPOCH   = 22958
BSTAR          = .45915595E-4
MEAN_MOTION_DOT = .45E-6
MEAN_MOTION_DDOT = 0

CCSDS_OMM_VERS = 2.0
CREATION_DATE  = 
ORIGINATOR     = 

OBJECT_NAME    = MIDORI II (ADEOS-II)
OBJECT_ID      = 2002-056A
CENTER_NAME    = EARTH
REF_FRAME      = TEME
TIME_SYSTEM    = UTC
MEAN_ELEMENT_THEORY = SGP/SGP4

EPOCH          = 2026-03-11T21:41:32.422272
MEAN_MOTION    = 14.29287029
ECCENTRICITY   = .0001508
INCLINATION    = 98.7769
RA_OF_ASC_NODE = 29.3966
ARG_OF_PERICENTER = 40.3821
MEAN_ANOMALY   = 319.7472

EPHEMERIS_TYPE = 0
CLASSIFICATION_TYPE = U
NORAD_CAT_ID   = 27597
ELEMENT_SET_NO = 999
REV_AT_EPOCH   = 21061
BSTAR          = .16071E-3
MEAN_MOTION_DOT = .364E-5
MEAN_MOTION_DDOT = 0

CCSDS_OMM_VERS = 2.0
CREATION_DATE  = 
ORIGINATOR     = 

OBJECT_NAME    = H-2A R/B
OBJECT_ID      = 2002-056E
CENTER_NAME    = EARTH
REF_FRAME      = TEME
TIME_SYSTEM    = UTC
MEAN_ELEMENT_THEORY = SGP/SGP4

EPOCH          = 2026-03-11T20:52:15.156768
MEAN_MOTION    = 14.33762249
ECCENTRICITY   = .00706322
INCLINATION    = 98.3205
RA_OF_ASC_NODE = 31.1522
ARG_OF_PERICENTER = 154.2148
MEAN_ANOMALY   = 261.2108

EPHEMERIS_TYPE = 0
CLASSIFICATION_TYPE = U
NORAD_CAT_ID   = 27601
ELEMENT_SET_NO = 999
REV_AT_EPOCH   = 21442
BSTAR          = .12062239E-3
MEAN_MOTION_DOT = .303E-5
MEAN_MOTION_DDOT = 0

CCSDS_OMM_VERS = 2.0
CREATION_DATE  = 
ORIGINATOR     = 

OBJECT_NAME    = CZ-4B R/B
OBJECT_ID      = 2003-049C
CENTER_NAME    = EARTH
REF_FRAME      = TEME
TIME_SYSTEM    = UTC
MEAN_ELEMENT_THEORY = SGP/SGP4

EPOCH          = 2026-03-11T23:55:14.664000
MEAN_MOTION    = 14.55022487
ECCENTRICITY   = .00473336
INCLINATION    = 98.6879
RA_OF_ASC_NODE = 65.9919
ARG_OF_PERICENTER = 223.7086
MEAN_ANOMALY   = 136.0358

EPHEMERIS_TYPE = 0
CLASSIFICATION_TYPE = U
NORAD_CAT_ID   = 28059
ELEMENT_SET_NO = 999
REV_AT_EPOCH   = 18693
BSTAR          = .11034967E-3
MEAN_MOTION_DOT = .431E-5
MEAN_MOTION_DDOT = 0

CCSDS_OMM_VERS = 2.0
CREATION_DATE  = 
ORIGINATOR     = 

OBJECT_NAME    = CZ-2C R/B
OBJECT_ID      = 2004-012C
CENTER_NAME    = EARTH
REF_FRAME      = TEME
TIME_SYSTEM    = UTC
MEAN_ELEMENT_THEORY = SGP/SGP4

EPOCH          = 2026-03-12T04:00:53.408448
MEAN_MOTION    = 15.64833079
ECCENTRICITY   = .0012921
INCLINATION    = 97.7224
RA_OF_ASC_NODE = 136.6945
ARG_OF_PERICENTER = 299.2495
MEAN_ANOMALY   = 60.7471

EPHEMERIS_TYPE = 0
CLASSIFICATION_TYPE = U
NORAD_CAT_ID   = 28222
ELEMENT_SET_NO = 999
REV_AT_EPOCH   = 20466
BSTAR          = .61961885E-3
MEAN_MOTION_DOT = .60823E-3
MEAN_MOTION_DDOT = 0

CCSDS_OMM_VERS = 2.0
CREATION_DATE  = 
ORIGINATOR     = 

OBJECT_NAME    = SL-16 R/B
OBJECT_ID      = 2004-021B
CENTER_NAME    = EARTH
REF_FRAME      = TEME
TIME_SYSTEM    = UTC
MEAN_ELEMENT_THEORY = SGP/SGP4

EPOCH          = 2026-03-11T20:40:10.851744
MEAN_MOTION    = 14.14597110
ECCENTRICITY   = .00041759
INCLINATION    = 70.9996
RA_OF_ASC_NODE = 227.9350
ARG_OF_PERICENTER = 6.1397
MEAN_ANOMALY   = 353.9776

EPHEMERIS_TYPE = 0
CLASSIFICATION_TYPE = U
NORAD_CAT_ID   = 28353
ELEMENT_SET_NO = 999
REV_AT_EPOCH   = 12314
BSTAR          = -.11319916E-3
MEAN_MOTION_DOT = -.265E-5
MEAN_MOTION_DDOT = 0

CCSDS_OMM_VERS = 2.0
CREATION_DATE  = 
ORIGINATOR     = 

OBJECT_NAME    = CZ-4B R/B
OBJECT_ID      = 2004-035C
CENTER_NAME    = EARTH
REF_FRAME      = TEME
TIME_SYSTEM    = UTC
MEAN_ELEMENT_THEORY = SGP/SGP4

EPOCH          = 2026-03-12T07:55:56.570304
MEAN_MOTION    = 15.29114318
ECCENTRICITY   = .0030709
INCLINATION    = 97.3502
RA_OF_ASC_NODE = 105.5415
ARG_OF_PERICENTER = 321.7707
MEAN_ANOMALY   = 38.1355

EPHEMERIS_TYPE = 0
CLASSIFICATION_TYPE = U
NORAD_CAT_ID   = 28415
ELEMENT_SET_NO = 999
REV_AT_EPOCH   = 18031
BSTAR          = .29994893E-3
MEAN_MOTION_DOT = .8521E-4
MEAN_MOTION_DDOT = 0

CCSDS_OMM_VERS = 2.0
CREATION_DATE  = 
ORIGINATOR     = 

OBJECT_NAME    = CZ-2C R/B
OBJECT_ID      = 2004-046B
CENTER_NAME    = EARTH
REF_FRAME      = TEME
TIME_SYSTEM    = UTC
MEAN_ELEMENT_THEORY = SGP/SGP4

EPOCH          = 2026-03-12T06:58:04.088640
MEAN_MOTION    = 14.26993117
ECCENTRICITY   = .01400224
INCLINATION    = 98.1981
RA_OF_ASC_NODE = 346.1125
ARG_OF_PERICENTER = 146.7804
MEAN_ANOMALY   = 214.2266

EPHEMERIS_TYPE = 0
CLASSIFICATION_TYPE = U
NORAD_CAT_ID   = 28480
ELEMENT_SET_NO = 999
REV_AT_EPOCH   = 10887
BSTAR          = .68606244E-4
MEAN_MOTION_DOT = .145E-5
MEAN_MOTION_DDOT = 0

CCSDS_OMM_VERS = 2.0
CREATION_DATE  = 
ORIGINATOR     = 

OBJECT_NAME    = ARIANE 5 R/B
OBJECT_ID      = 2004-049H
CENTER_NAME    = EARTH
REF_FRAME      = TEME
TIME_SYSTEM    = UTC
MEAN_ELEMENT_THEORY = SGP/SGP4

EPOCH          = 2026-03-12T04:37:24.954816
MEAN_MOTION    = 14.85271369
ECCENTRICITY   = .00837634
INCLINATION    = 98.2631
RA_OF_ASC_NODE = 239.7433
ARG_OF_PERICENTER = 343.7925
MEAN_ANOMALY   = 16.0612

EPHEMERIS_TYPE = 0
CLASSIFICATION_TYPE = U
NORAD_CAT_ID   = 28499
ELEMENT_SET_NO = 999
REV_AT_EPOCH   = 14616
BSTAR          = .11379225E-3
MEAN_MOTION_DOT = .974E-5
MEAN_MOTION_DDOT = 0

CCSDS_OMM_VERS = 2.0
CREATION_DATE  = 
ORIGINATOR     = 

OBJECT_NAME    = CZ-2D R/B
OBJECT_ID      = 2005-024B
CENTER_NAME    = EARTH
REF_FRAME      = TEME
TIME_SYSTEM    = UTC
MEAN_ELEMENT_THEORY = SGP/SGP4

EPOCH          = 2026-03-12T00:26:13.956576
MEAN_MOTION    = 15.60374594
ECCENTRICITY   = .0005489
INCLINATION    = 97.3600
RA_OF_ASC_NODE = 86.2502
ARG_OF_PERICENTER = 40.4701
MEAN_ANOMALY   = 319.6963

EPHEMERIS_TYPE = 0
CLASSIFICATION_TYPE = U
NORAD_CAT_ID   = 28738
ELEMENT_SET_NO = 999
REV_AT_EPOCH   = 14014
BSTAR          = .52957681E-3
MEAN_MOTION_DOT = .43465E-3
MEAN_MOTION_DDOT = 0

CCSDS_OMM_VERS = 2.0
CREATION_DATE  = 
ORIGINATOR     = 

OBJECT_NAME    = ALOS (DAICHI)
OBJECT_ID      = 2006-002A
CENTER_NAME    = EARTH
REF_FRAME      = TEME
TIME_SYSTEM    = UTC
MEAN_ELEMENT_THEORY = SGP/SGP4

EPOCH          = 2026-03-12T07:03:28.117152
MEAN_MOTION    = 14.69820577
ECCENTRICITY   = .00008416
INCLINATION    = 98.1220
RA_OF_ASC_NODE = 27.2364
ARG_OF_PERICENTER = 61.0446
MEAN_ANOMALY   = 299.0844

EPHEMERIS_TYPE = 0
CLASSIFICATION_TYPE = U
NORAD_CAT_ID   = 28931
ELEMENT_SET_NO = 999
REV_AT_EPOCH   = 7386
BSTAR          = .31043874E-3
MEAN_MOTION_DOT = .1805E-4
MEAN_MOTION_DDOT = 0

